[
    {
        "Altitude(m)": 617710.6835892342,
        "Argument of Periapsis(deg)": 0.0,
        "Eccentricity": 0.0,
        "Inclination(deg)": 60.0,
        "Latitude(deg)": -41.102779064630504,
        "Longitude(deg)": -20.033257690513864,
        "Mean Anomaly(deg)": -49.09089999999997,
        "RAAN(deg)": 110.00000000000001,
        "Satellite Name": "Test1 503",
        "Satellite Number": 503,
        "Semi-Major Axis(m)": 6980739.136638005,
        "Time(s)": 0
    },
    {
        "Altitude(m)": 617517.9815618376,
        "Argument of Periapsis(deg)": 0.00010418945913296404,
        "Eccentricity": 0.0,
        "Inclination(deg)": 60.0,
        "Latitude(deg)": -40.63698490245498,
        "Longitude(deg)": -19.536465038699273,
        "Mean Anomaly(deg)": -48.47079385453808,
        "RAAN(deg)": 109.99957995086025,
        "Satellite Name": "Test1 503",
        "Satellite Number": 503,
        "Semi-Major Axis(m)": 6980739.136638005,
        "Time(s)": 10
    },
    {
        "Altitude(m)": 617324.3024251971,
        "Argument of Periapsis(deg)": 0.0002083789182659281,
        "Eccentricity": 0.0,
        "Inclination(deg)": 60.0,
        "Latitude(deg)": -40.16866542692925,
        "Longitude(deg)": -19.047100270828352,
        "Mean Anomaly(deg)": -47.85068770907629,
        "RAAN(deg)": 109.99915990172053,
        "Satellite Name": "Test1 503",
        "Satellite Number": 503,
        "Semi-Major Axis(m)": 6980739.136638005,
        "Time(s)": 20
    },
    {
        "Altitude(m)": 617129.720160312,
        "Argument of Periapsis(deg)": 0.00031256837739889213,
        "Eccentricity": 0.0,
        "Inclination(deg)": 60.0,
        "Latitude(deg)": -39.69789376989873,
        "Longitude(deg)": -18.564978931589614,
        "Mean Anomaly(deg)": -47.23058156361445,
        "RAAN(deg)": 109.99873985258077,
        "Satellite Name": "Test1 503",
        "Satellite Number": 503,
        "Semi-Major Axis(m)": 6980739.136638005,
        "Time(s)": 30
    },
    {
        "Altitude(m)": 616934.3089969014,
        "Argument of Periapsis(deg)": 0.0004167578365318562,
        "Eccentricity": 0.0,
        "Inclination(deg)": 60.0,
        "Latitude(deg)": -39.22474084052842,
        "Longitude(deg)": -18.089919543947445,
        "Mean Anomaly(deg)": -46.61047541815261,
        "RAAN(deg)": 109.99831980344105,
        "Satellite Name": "Test1 503",
        "Satellite Number": 503,
        "Semi-Major Axis(m)": 6980739.136638005,
        "Time(s)": 40
    },
    {
        "Altitude(m)": 616738.1433809535,
        "Argument of Periapsis(deg)": 0.0005209472956648203,
        "Eccentricity": 0.0,
        "Inclination(deg)": 60.0,
        "Latitude(deg)": -38.74927539770119,
        "Longitude(deg)": -17.62174463233517,
        "Mean Anomaly(deg)": -45.990369272690764,
        "RAAN(deg)": 109.9978997543013,
        "Satellite Name": "Test1 503",
        "Satellite Number": 503,
        "Semi-Major Axis(m)": 6980739.136638005,
        "Time(s)": 50
    },
    {
        "Altitude(m)": 616541.2979421268,
        "Argument of Periapsis(deg)": 0.0006251367547977843,
        "Eccentricity": 0.0,
        "Inclination(deg)": 60.0,
        "Latitude(deg)": -38.27156412092918,
        "Longitude(deg)": -17.160280222091558,
        "Mean Anomaly(deg)": -45.37026312722898,
        "RAAN(deg)": 109.99747970516154,
        "Satellite Name": "Test1 503",
        "Satellite Number": 503,
        "Semi-Major Axis(m)": 6980739.136638005,
        "Time(s)": 60
    },
    {
        "Altitude(m)": 616343.8474610669,
        "Argument of Periapsis(deg)": 0.0007293262139307483,
        "Eccentricity": 0.0,
        "Inclination(deg)": 60.0,
        "Latitude(deg)": -37.79167167971074,
        "Longitude(deg)": -16.70535532914247,
        "Mean Anomaly(deg)": -44.75015698176714,
        "RAAN(deg)": 109.99705965602182,
        "Satellite Name": "Test1 503",
        "Satellite Number": 503,
        "Semi-Major Axis(m)": 6980739.136638005,
        "Time(s)": 70
    },
    {
        "Altitude(m)": 616145.8668366307,
        "Argument of Periapsis(deg)": 0.0008335156730637124,
        "Eccentricity": 0.0,
        "Inclination(deg)": 60.0,
        "Latitude(deg)": -37.30966080128034,
        "Longitude(deg)": -16.256802953842378,
        "Mean Anomaly(deg)": -44.13005083630535,
        "RAAN(deg)": 109.99663960688206,
        "Satellite Name": "Test1 503",
        "Satellite Number": 503,
        "Semi-Major Axis(m)": 6980739.136638005,
        "Time(s)": 80
    },
    {
        "Altitude(m)": 615947.4310530293,
        "Argument of Periapsis(deg)": 0.0009377051321966765,
        "Eccentricity": 0.0,
        "Inclination(deg)": 60.0,
        "Latitude(deg)": -36.82559233670387,
        "Longitude(deg)": -15.814459554184666,
        "Mean Anomaly(deg)": -43.50994469084346,
        "RAAN(deg)": 109.99621955774234,
        "Satellite Name": "Test1 503",
        "Satellite Number": 503,
        "Semi-Major Axis(m)": 6980739.136638005,
        "Time(s)": 90
    },
    {
        "Altitude(m)": 615748.615146913,
        "Argument of Periapsis(deg)": 0.0010418945913296407,
        "Eccentricity": 0.0,
        "Inclination(deg)": 60.0,
        "Latitude(deg)": -36.33952532529299,
        "Longitude(deg)": -15.378164512135605,
        "Mean Anomaly(deg)": -42.88983854538161,
        "RAAN(deg)": 109.99579950860257,
        "Satellite Name": "Test1 503",
        "Satellite Number": 503,
        "Semi-Major Axis(m)": 6980739.136638005,
        "Time(s)": 100
    },
    {
        "Altitude(m)": 615549.4941744226,
        "Argument of Periapsis(deg)": 0.0011460840504626045,
        "Eccentricity": 0.0,
        "Inclination(deg)": 60.0,
        "Latitude(deg)": -35.851517057320386,
        "Longitude(deg)": -14.947761106772708,
        "Mean Anomaly(deg)": -42.26973239991982,
        "RAAN(deg)": 109.99537945946282,
        "Satellite Name": "Test1 503",
        "Satellite Number": 503,
        "Semi-Major Axis(m)": 6980739.136638005,
        "Time(s)": 110
    },
    {
        "Altitude(m)": 615350.143178201,
        "Argument of Periapsis(deg)": 0.0012502735095955685,
        "Eccentricity": 0.0,
        "Inclination(deg)": 60.0,
        "Latitude(deg)": -35.36162313502102,
        "Longitude(deg)": -14.5230959692187,
        "Mean Anomaly(deg)": -41.64962625445798,
        "RAAN(deg)": 109.99495941032308,
        "Satellite Name": "Test1 503",
        "Satellite Number": 503,
        "Semi-Major Axis(m)": 6980739.136638005,
        "Time(s)": 120
    },
    {
        "Altitude(m)": 615150.6371543799,
        "Argument of Periapsis(deg)": 0.0013544629687285324,
        "Eccentricity": 0.0,
        "Inclination(deg)": 60.0,
        "Latitude(deg)": -34.86989753188019,
        "Longitude(deg)": -14.104018532921298,
        "Mean Anomaly(deg)": -41.02952010899614,
        "RAAN(deg)": 109.99453936118334,
        "Satellite Name": "Test1 503",
        "Satellite Number": 503,
        "Semi-Major Axis(m)": 6980739.136638005,
        "Time(s)": 130
    },
    {
        "Altitude(m)": 614951.051019596,
        "Argument of Periapsis(deg)": 0.0014586524278614966,
        "Eccentricity": 0.0,
        "Inclination(deg)": 60.0,
        "Latitude(deg)": -34.37639265021481,
        "Longitude(deg)": -13.690381992768094,
        "Mean Anomaly(deg)": -40.4094139635343,
        "RAAN(deg)": 109.9941193120436,
        "Satellite Name": "Test1 503",
        "Satellite Number": 503,
        "Semi-Major Axis(m)": 6980739.136638005,
        "Time(s)": 140
    },
    {
        "Altitude(m)": 614751.4595779775,
        "Argument of Periapsis(deg)": 0.0015628418869944607,
        "Eccentricity": 0.0,
        "Inclination(deg)": 60.0,
        "Latitude(deg)": -33.88115937705489,
        "Longitude(deg)": -13.282042747850328,
        "Mean Anomaly(deg)": -39.78930781807251,
        "RAAN(deg)": 109.99369926290386,
        "Satellite Name": "Test1 503",
        "Satellite Number": 503,
        "Semi-Major Axis(m)": 6980739.136638005,
        "Time(s)": 150
    },
    {
        "Altitude(m)": 614551.9374882294,
        "Argument of Periapsis(deg)": 0.0016670313461274247,
        "Eccentricity": 0.0,
        "Inclination(deg)": 60.0,
        "Latitude(deg)": -33.384247138343376,
        "Longitude(deg)": -12.878859841259684,
        "Mean Anomaly(deg)": -39.16920167261067,
        "RAAN(deg)": 109.99327921376411,
        "Satellite Name": "Test1 503",
        "Satellite Number": 503,
        "Semi-Major Axis(m)": 6980739.136638005,
        "Time(s)": 160
    },
    {
        "Altitude(m)": 614352.5592306943,
        "Argument of Periapsis(deg)": 0.0017712208052603888,
        "Eccentricity": 0.0,
        "Inclination(deg)": 60.0,
        "Latitude(deg)": -32.88570395147888,
        "Longitude(deg)": -12.480695910254788,
        "Mean Anomaly(deg)": -38.54909552714888,
        "RAAN(deg)": 109.99285916462438,
        "Satellite Name": "Test1 503",
        "Satellite Number": 503,
        "Semi-Major Axis(m)": 6980739.136638005,
        "Time(s)": 170
    },
    {
        "Altitude(m)": 614153.399074517,
        "Argument of Periapsis(deg)": 0.001875410264393353,
        "Eccentricity": 0.0,
        "Inclination(deg)": 60.0,
        "Latitude(deg)": -32.38557647621992,
        "Longitude(deg)": -12.087416621468263,
        "Mean Anomaly(deg)": -37.92898938168698,
        "RAAN(deg)": 109.99243911548463,
        "Satellite Name": "Test1 503",
        "Satellite Number": 503,
        "Semi-Major Axis(m)": 6980739.136638005,
        "Time(s)": 180
    },
    {
        "Altitude(m)": 613954.5310448885,
        "Argument of Periapsis(deg)": 0.0019795997235263173,
        "Eccentricity": 0.0,
        "Inclination(deg)": 60.0,
        "Latitude(deg)": -31.883910063982842,
        "Longitude(deg)": -11.69889010440727,
        "Mean Anomaly(deg)": -37.30888323622519,
        "RAAN(deg)": 109.9920190663449,
        "Satellite Name": "Test1 503",
        "Satellite Number": 503,
        "Semi-Major Axis(m)": 6980739.136638005,
        "Time(s)": 190
    }
]